<?xml version="1.0" encoding="UTF-8"?>
<kml xmlns="http://www.opengis.net/kml/2.2">
  <Document>
    <name>Peta Pos Hidrologi WS Cimanuk Cisanggarung</name>
    <description>Data Lokasi Pos Hidrologi WS Cimanuk Cisanggarung</description>
    <NetworkLink>
      <name>Peta Pos Hidrologi WS Cimanuk Cisanggarung</name>
      <Link>
        <href><![CDATA[https://www.google.com/maps/d/u/0/kml?forcekml=1&mid=1rggFNDIBFjPzBDSk-BIRdAeNYzAlZgc]]></href>
      </Link>
    </NetworkLink>
  </Document>
</kml>
