<?xml version="1.0" encoding="UTF-8"?>
<kml xmlns="http://www.opengis.net/kml/2.2">
  <Document>
    <name>Peta Infrastruktur SDA  WRDC</name>
    <description>Infrastruktur SDA Yang Terdata Di Aplikasi WRDC Yang Ada Di Wilayah Cimanuk Cisanggarung</description>
    <NetworkLink>
      <name>Peta Infrastruktur SDA  WRDC</name>
      <Link>
        <href><![CDATA[https://www.google.com/maps/d/u/0/kml?forcekml=1&mid=17TkghONtmDtVoMUyuCYagXO5jy0hSKU]]></href>
      </Link>
    </NetworkLink>
  </Document>
</kml>
