<?xml version="1.0" encoding="UTF-8"?>
<kml xmlns="http://www.opengis.net/kml/2.2">
  <Document>
    <name>Peta Jenis Sungai WS Cimanuk Cisanggarung</name>
    <description>Data Jenis Sungai Ephemeral, Intermittent, dan Perennial</description>
    <NetworkLink>
      <name>Peta Jenis Sungai WS Cimanuk Cisanggarung</name>
      <Link>
        <href><![CDATA[https://www.google.com/maps/d/u/0/kml?forcekml=1&mid=1MwugALnkMLX8q7rBVODzDjs3JqjYdeo]]></href>
      </Link>
    </NetworkLink>
  </Document>
</kml>
